C/2021 B3 (NEOWISE),e,119.4799,67.2833,293.5341,34.41133,0.0048826,0.93719795,4.2701,08/02.0/2023,2000,g 13.5,4.0
# From MPEC 2023-KD6
C/2021 C1 (Rankin),e,143.0446,186.8948,336.2167,6496,0.0000019,0.99946474,0.0000,12/06.8615/2020,2000,g 11.5,4.0
# From MPEC 2021-U31
P/2021 C2 (PANSTARRS),e,21.9370,66.4589,78.7137,9.534676,0.0334769,0.48745677,29.7757,08/02.0/2023,2000,g 12.0,4.0
# From MPEC 2021-N06
C/2021 C3 (Catalina),e,122.1660,181.9228,357.0623,61.71002,0.0020332,0.96314883,1.8317,08/02.0/2023,2000,g 14.0,4.0
# From MPEC 2022-M88
C/2021 C4 (ATLAS),e,132.8530,194.2768,320.1815,72752,0.0000001,0.99993813,0.0000,01/16.9876/2021,2000,g  9.0,4.0
# From MPEC 2023-N16
C/2021 C5 (PANSTARRS),e,50.7825,323.6793,270.9232,2182,0.0000097,0.99851446,0.0000,02/11.0675/2023,2000,g  9.0,4.0
# From MPEC 2022-YB4
C/2021 C6 (Lemmon),h,11/13.2815/2021,164.6186,332.2378,203.7294,1.000914,3.276304,2000,12.0,4.0
# From MPEC 2022-F14
C/2021 D1 (SWAN),e,31.4190,311.2243,72.3091,100.6218,0.0009765,0.99102906,0.0000,02/27.7649/2021,2000,g 13.0,4.0
# From MPEC 2023-J29
C/2021 D2 (ZTF),h,02/03.9742/2022,83.8105,305.6749,125.0268,1.001681,2.946252,2000,9.0,4.0
# From MPEC 2022-UY9
A/2021 E2,e,167.4884,190.8176,342.3676,222.2002,0.0002976,0.98972010,0.0000,12/10.3168/2020,2000,g 15.0,2.0
# From MPEC 2023-J29
C/2021 E3 (ZTF),h,06/11.8878/2022,112.5463,104.4781,228.8475,1.000804,1.777312,2000,8.5,4.0
# From MPEC 2023-M14
A/2021 E4,e,116.3611,171.1692,48.2624,575.1449,0.0000715,0.99186967,0.0000,04/25.1468/2022,2000,g 13.5,22.0
# From MPEC 2022-QD9
C/2021 F1 (Lemmon-PANSTARRS),e,107.3264,203.4532,146.8348,229.2696,0.0002839,0.99565550,0.0000,04/06.8175/2022,2000,g 13.5,4.0
# From MPEC 2021-J72
C/2021 G1 (Leonard),e,131.5474,270.6985,107.4494,73.70799,0.0015575,0.95355354,1.1543,08/02.0/2023,2000,g 14.0,4.0
# From MPEC 2023-OA6
C/2021 G2 (ATLAS),e,48.4744,221.0947,343.3165,8715,0.0000012,0.99942836,0.0000,09/09.5406/2024,2000,g  5.5,4.0
# From MPEC 2022-X67
C/2021 G3 (PANSTARRS),h,10/18.1018/2021,102.8727,147.4024,10.5942,1.000017,5.180081,2000,10.5,4.0
# From MPEC 2021-Y10
P/2021 HS (PANSTARRS),e,12.1611,262.3777,46.1254,4.194597,0.1147278,0.80978455,83.2731,08/02.0/2023,2000,g 22.0,4.0
# From MPEC 2022-C56
C/2021 J1 (Maury-Attard),e,92.7197,88.3751,147.3161,26.36824,0.0072792,0.93399673,6.5048,08/02.0/2023,2000,g 15.5,4.0
# From MPEC 2023-KD6
C/2021 J2 (PANSTARRS),e,156.2133,23.3357,172.0085,117.1269,0.0007775,0.95983401,0.5279,08/02.0/2023,2000,g 12.0,4.0
# From MPEC 2021-S45
P/2021 J3 (ATLAS),e,14.5301,111.1402,125.9834,8.927099,0.0369520,0.44912375,55.0748,08/02.0/2023,2000,g  7.0,4.0
# From MPEC 2022-O08
C/2021 K1 (ATLAS),e,16.2752,140.9072,184.2786,12.66501,0.0218673,0.80267783,17.9283,08/02.0/2023,2000,g 11.0,4.0
# From MPEC 2022-O01
C/2021 K2 (MASTER),h,09/09.4778/2021,100.8642,282.2571,343.3629,1.001094,5.467917,2000,8.0,4.0
# From MPEC 2022-L66
C/2021 K3 (Catalina),h,02/03.1954/2022,134.7853,114.4654,182.0586,1.003522,5.230075,2000,10.0,4.0
# From MPEC 2021-W31
P/2021 L2 (Leonard),e,21.0676,266.6567,51.5084,4.048871,0.1209771,0.52105806,89.3796,08/02.0/2023,2000,g 17.0,4.0
# From MPEC 2023-M14
C/2021 L3 (Borisov),h,02/14.2290/2022,78.5753,344.9812,91.6161,1.003720,8.458099,2000,10.1,4.0
# From MPEC 2022-TA0
P/2021 N1 (ZTF),e,11.4957,301.1607,21.2301,2.978145,0.1917721,0.67630402,150.8554,08/02.0/2023,2000,g 19.0,4.0
# From MPEC 2023-M14
P/2021 N2 (Fuls),e,13.0613,221.7338,177.4688,6.938977,0.0539214,0.45259441,33.7566,08/02.0/2023,2000,g 10.8,4.0
# From MPEC 2022-YB4
C/2021 N3 (PANSTARRS),e,26.7414,337.4938,304.7582,150.5315,0.0005337,0.96201941,0.5752,08/02.0/2023,2000,g  8.5,4.0
# From MPEC 2022-A21
C/2021 O1 (Nishimura),e,27.5895,41.6234,74.3855,2390,0.0000084,0.99967144,0.0000,08/14.0575/2021,2000,g 10.5,4.0
# From MPEC 2022-L66
C/2021 O3 (PANSTARRS),h,04/21.0551/2022,56.7944,189.0100,299.9623,1.000055,0.286854,2000,10.5,4.0
# From MPEC 2022-CN4
C/2021 P1 (PANSTARRS),e,51.6366,359.6780,40.4705,2580,0.0000075,0.99830399,0.0000,06/02.4269/2022,2000,g 11.0,4.0
# From MPEC 2023-O39
C/2021 P2 (PANSTARRS),e,150.0635,32.0800,76.7024,2824,0.0000066,0.99820518,0.0000,01/22.8066/2023,2000,g  9.0,4.0
# From MPEC 2021-W31
P/2021 P3 (PANSTARRS),e,27.1616,358.2396,334.0927,4.412350,0.1063406,0.33901318,84.4273,08/02.0/2023,2000,g 14.0,4.0
# From MPEC 2023-A50
C/2021 P4 (ATLAS),e,56.3121,348.0886,175.8058,306.4956,0.0001837,0.99647561,0.0000,07/30.3462/2022,2000,g  9.5,4.0
# From MPEC 2023-E68
P/2021 PE20 (ATLAS),e,20.0076,99.6309,210.4684,3.745766,0.1359543,0.67026199,106.8738,08/02.0/2023,2000,g 17.0,4.0
# From MPEC 2023-FK0
C/2021 Q3 (ATLAS),e,77.7573,307.9140,114.1041,75.67497,0.0014972,0.93121982,0.8276,08/02.0/2023,2000,g  8.0,4.0
# From MPEC 2023-OA6
C/2021 Q4 (Fuls),h,06/10.7693/2023,71.4754,183.3318,147.0206,1.003180,7.564708,2000,6.0,4.0
# From MPEC 2022-C56
P/2021 Q5 (ATLAS),e,10.7395,239.7477,180.9276,3.286686,0.1654119,0.62457694,116.0138,08/02.0/2023,2000,g 15.0,4.0
# From MPEC 2023-OA6
C/2021 Q6 (PANSTARRS),e,161.8467,133.5375,140.9791,830310,0.0000000,0.99998951,0.0000,03/24.2648/2024,2000,g  6.0,4.0
# From MPEC 2023-FK0
C/2021 QM45 (PANSTARRS),e,22.8213,354.5917,72.8269,369.4357,0.0001388,0.99249219,0.0000,08/13.5259/2022,2000,g 11.0,4.0
# From MPEC 2022-X67
P/2021 R1 (PANSTARRS),e,5.5192,143.3168,220.3239,8.328477,0.0410068,0.41334344,24.3527,08/02.0/2023,2000,g 11.0,4.0
# From MPEC 2022-X67
C/2021 R2 (PANSTARRS),e,134.4821,16.2977,32.4561,2744,0.0000069,0.99733404,0.0000,12/27.0719/2021,2000,g  7.5,4.0
# From MPEC 2021-W31
P/2021 R3 (PANSTARRS),e,19.9298,304.1985,2.7613,3.771994,0.1345388,0.33107600,107.3781,08/02.0/2023,2000,g 16.0,4.0
# From MPEC 2021-W31
P/2021 R4 (Wierzchos),e,21.0335,321.2628,56.7004,5.622788,0.0739225,0.58600709,48.5617,08/02.0/2023,2000,g 16.0,4.0
# From MPEC 2022-Y15
P/2021 R5 (Rankin),e,7.8545,219.9561,167.4597,4.794125,0.0938945,0.30665563,53.1901,08/02.0/2023,2000,g 12.0,4.0
# From MPEC 2021-W31
P/2021 R6 (Groeller),e,34.9244,176.1179,220.8065,6.281534,0.0626045,0.59345861,39.9960,08/02.0/2023,2000,g 14.5,4.0
# From MPEC 2022-X67
C/2021 R7 (PANSTARRS),e,158.8549,170.1532,140.2820,866.8400,0.0000386,0.99348135,0.0000,04/16.5295/2021,2000,g 10.5,4.0
# From MPEC 2021-Y10
P/2021 R8 (Sheppard),e,2.2034,167.0266,190.8466,3.018085,0.1879780,0.29338650,124.7228,08/02.0/2023,2000,g 18.5,4.0
# From MPEC 2023-J29
C/2021 S1 (ATLAS),h,03/01.1840/2022,52.0677,299.8769,148.2027,1.002146,6.119577,2000,7.0,4.0
# From MPEC 2023-OA6
C/2021 S3 (PANSTARRS),h,02/14.7240/2024,58.5334,215.6214,6.8649,1.000151,1.320091,2000,5.5,4.0
# From MPEC 2023-E68
C/2021 S4 (Tsuchinshan),e,17.4794,5.4937,72.8401,164.5859,0.0004668,0.95935397,359.9286,08/02.0/2023,2000,g  6.5,4.0
# From MPEC 2022-OB6
C/2021 T1 (Lemmon),e,140.3564,56.8272,51.5493,1408,0.0000187,0.99782733,0.0000,10/14.1564/2021,2000,g 12.5,4.0
# From MPEC 2023-A50
C/2021 T2 (Fuls),h,06/07.9322/2022,117.5381,223.2336,263.5990,1.000401,1.247615,2000,12.0,4.0
# From MPEC 2023-OA6
C/2021 T4 (Lemmon),e,160.7769,257.8847,329.8215,9121,0.0000011,0.99983737,0.0000,07/31.5376/2023,2000,g  7.5,4.0
# From MPEC 2022-ED3
P/2021 U1 (Wierzchos),e,30.5535,246.7691,145.1333,8.525040,0.0395967,0.71299055,26.5246,08/02.0/2023,2000,g 14.5,4.0
# From MPEC 2022-L66
P/2021 U3 (Attard-Maury),e,69.9605,75.0909,335.2526,4.193097,0.1147894,0.54981675,74.1680,08/02.0/2023,2000,g 15.5,4.0
# From MPEC 2021-W31
C/2021 U4 (Leonard),e,152.8841,241.8088,237.3094,44.91240,0.0032746,0.96017941,1.9256,08/02.0/2023,2000,g 17.0,4.0
# From MPEC 2022-WQ9
C/2021 U5 (Catalina),e,39.0490,182.7513,321.4360,216.5708,0.0003092,0.98909355,0.0000,01/26.5824/2022,2000,g 13.0,4.0
# From MPEC 2022-CN4
C/2021 V1 (Rankin),e,71.4540,207.6530,195.1411,615.6615,0.0000645,0.99510397,0.0000,04/30.4601/2022,2000,g 13.0,4.0
# From MPEC 2023-KD6
P/2021 V2 (Fuls),e,12.6943,232.2790,259.8342,9.064254,0.0361165,0.61424447,6.9552,08/02.0/2023,2000,g 10.0,4.0
# From MPEC 2023-OA6
C/2021 X1 (Maury-Attard),h,05/27.2759/2023,140.1088,10.5922,334.5876,1.001285,3.233544,2000,7.0,4.0
# From MPEC 2023-A50
A/2021 X2,h,07/08.0375/2022,137.1614,228.8223,193.2840,1.000747,2.994474,2000,16.0,2.0
# From MPEC 2023-N01
C/2021 Y1 (ATLAS),h,04/30.7136/2023,77.1909,244.7700,245.8208,1.000866,2.032407,2000,7.0,4.0
# From MPEC 2022-YN2
C/2022 A1 (Sarneczky),e,116.5126,285.5219,201.2253,348.8374,0.0001513,0.99640748,0.0000,01/31.1073/2022,2000,g 18.0,4.0
# From MPEC 2023-OA6
C/2022 A2 (PANSTARRS),h,02/18.2783/2023,108.1423,171.5824,88.3733,1.000504,1.735378,2000,9.5,4.0
# From MPEC 2023-M14
C/2022 A3 (Lemmon-ATLAS),e,88.3439,325.4810,234.8474,896.8342,0.0000367,0.99587052,0.0000,09/28.8494/2023,2000,g 10.9,4.0
# From MPEC 2022-K19
P/2022 B1 (Wierzchos),e,10.9898,148.8377,325.4730,5.466365,0.0771181,0.65316499,40.3031,08/02.0/2023,2000,g 16.5,4.0
# From MPEC 2022-YB4
A/2022 B3,e,132.0514,286.1832,150.6901,825.9401,0.0000415,0.99552148,0.0000,01/17.4964/2022,2000,g 16.5,2.0
# From MPEC 2022-GA9
C/2022 B4 (Bok),e,20.0439,340.6414,152.9358,379.7744,0.0001332,0.99637029,0.0000,01/29.9236/2022,2000,g 21.0,4.0
# From MPEC 2023-J29
P/2022 BV9 (Lemmon),e,11.9328,337.3035,16.2553,4.361536,0.1082044,0.23466873,109.5031,08/02.0/2023,2000,g  9.5,4.0
# From MPEC 2023-J29
P/2022 C1 (PANSTARRS),e,4.7622,113.1329,9.3371,7.223463,0.0507675,0.44836888,32.2693,08/02.0/2023,2000,g 12.0,4.0
# From MPEC 2022-OB6
P/2022 C2 (PANSTARRS),e,9.9806,135.2631,89.2726,6.040897,0.0663822,0.44210901,23.9396,08/02.0/2023,2000,g 12.5,4.0
# From MPEC 2022-OB6
P/2022 C3 (PANSTARRS),e,12.8174,139.0477,93.9183,9.633844,0.0329613,0.54595435,13.0870,08/02.0/2023,2000,g 11.5,4.0
# From MPEC 2022-K19
P/2022 D1 (PANSTARRS),e,44.0763,47.9583,88.6766,7.402239,0.0489395,0.54728616,34.4521,08/02.0/2023,2000,g 12.5,4.0
# From MPEC 2022-K19
C/2022 D2 (Kowalski),e,22.6562,312.4457,177.7868,367.2653,0.0001400,0.99576783,0.0000,03/27.5943/2022,2000,g 17.0,4.0
# From MPEC 2023-M14
C/2022 E2 (ATLAS),h,09/14.0021/2024,137.1307,125.3686,41.6930,1.000892,3.666814,2000,9.0,4.0
# From MPEC 2023-OA6
